{
    "links": {
        "self": "http://www.neowsapp.com/rest/v1/neo/54076000?api_key=iIulBulltgU6a56xZRHN4H3l9WmuAYTsLGpBGhQ2"
    },
    "id": "54076000",
    "neo_reference_id": "54076000",
    "name": "(2020 UB4)",
    "designation": "2020 UB4",
    "nasa_jpl_url": "http://ssd.jpl.nasa.gov/sbdb.cgi?sstr=54076000",
    "absolute_magnitude_h": 26.386,
    "estimated_diameter": {
        "kilometers": {
            "estimated_diameter_min": 0.0140396078,
            "estimated_diameter_max": 0.0313935175
        },
        "meters": {
            "estimated_diameter_min": 14.0396078249,
            "estimated_diameter_max": 31.3935174739
        },
        "miles": {
            "estimated_diameter_min": 0.0087238052,
            "estimated_diameter_max": 0.0195070213
        },
        "feet": {
            "estimated_diameter_min": 46.0617069362,
            "estimated_diameter_max": 102.997107869
        }
    },
    "is_potentially_hazardous_asteroid": false,
    "close_approach_data": [
        {
            "close_approach_date": "2020-10-25",
            "close_approach_date_full": "2020-Oct-25 00:52",
            "epoch_date_close_approach": 1603587120000,
            "relative_velocity": {
                "kilometers_per_second": "7.7719888866",
                "kilometers_per_hour": "27979.1599916351",
                "miles_per_hour": "17385.1619403579"
            },
            "miss_distance": {
                "astronomical": "0.0252748561",
                "lunar": "9.8319190229",
                "kilometers": "3781064.637116507",
                "miles": "2349444.6203095166"
            },
            "orbiting_body": "Earth"
        }
    ],
    "orbital_data": {
        "orbit_id": "4",
        "orbit_determination_date": "2020-10-30 07:14:59",
        "first_observation_date": "2020-10-22",
        "last_observation_date": "2020-10-30",
        "data_arc_in_days": 8,
        "observations_used": 33,
        "orbit_uncertainty": "8",
        "minimum_orbit_intersection": ".0241465",
        "jupiter_tisserand_invariant": "3.677",
        "epoch_osculation": "2459146.5",
        "eccentricity": ".4895066839093181",
        "semi_major_axis": "1.993933599561085",
        "inclination": "8.467422307006352",
        "ascending_node_longitude": "214.4281876954824",
        "orbital_period": "1028.405674672294",
        "perihelion_distance": "1.017889775304568",
        "perihelion_argument": "179.8144847477377",
        "aphelion_distance": "2.969977423817601",
        "perihelion_time": "2459149.350678867909",
        "mean_anomaly": "359.0021015852774",
        "mean_motion": ".350056411459141",
        "equinox": "J2000",
        "orbit_class": {
            "orbit_class_type": "AMO",
            "orbit_class_description": "Near-Earth asteroid orbits similar to that of 1221 Amor",
            "orbit_class_range": "1.017 AU < q (perihelion) < 1.3 AU"
        }
    },
    "is_sentry_object": false
}